GOES 19                 
1 60133U 24119A   26087.88635154 -.00000268  00000+0  00000+0 0  9998
2 60133   0.0354  13.3266 0000853  28.4050  28.4295  1.00269963  6151
FENGYUN 3H              
1 65815U 25219A   26087.92131170  .00000069  00000+0  52904-4 0  9999
2 65815  98.6709  30.2769 0000843  61.0444 299.0817 14.19937479 25992
