[{"OBJECT_NAME":"GOES 19","OBJECT_ID":"2024-119A","EPOCH":"2026-03-28T21:16:20.773056","MEAN_MOTION":1.00269963,"ECCENTRICITY":8.532e-5,"INCLINATION":0.0354,"RA_OF_ASC_NODE":13.3266,"ARG_OF_PERICENTER":28.405,"MEAN_ANOMALY":28.4295,"EPHEMERIS_TYPE":0,"CLASSIFICATION_TYPE":"U","NORAD_CAT_ID":60133,"ELEMENT_SET_NO":999,"REV_AT_EPOCH":615,"BSTAR":0,"MEAN_MOTION_DOT":-2.68e-6,"MEAN_MOTION_DDOT":0},{"OBJECT_NAME":"FENGYUN 3H","OBJECT_ID":"2025-219A","EPOCH":"2026-03-28T22:06:41.330880","MEAN_MOTION":14.19937479,"ECCENTRICITY":8.438e-5,"INCLINATION":98.6709,"RA_OF_ASC_NODE":30.2769,"ARG_OF_PERICENTER":61.0444,"MEAN_ANOMALY":299.0817,"EPHEMERIS_TYPE":0,"CLASSIFICATION_TYPE":"U","NORAD_CAT_ID":65815,"ELEMENT_SET_NO":999,"REV_AT_EPOCH":2599,"BSTAR":5.2903957e-5,"MEAN_MOTION_DOT":6.9e-7,"MEAN_MOTION_DDOT":0}]
